[{"OBJECT_NAME":"LAPAN-A3","OBJECT_ID":"2016-040E","EPOCH":"2026-03-09T23:01:57.724896","MEAN_MOTION":15.3238951,"ECCENTRICITY":0.00109839,"INCLINATION":97.1488,"RA_OF_ASC_NODE":68.4254,"ARG_OF_PERICENTER":22.062,"MEAN_ANOMALY":338.1093,"EPHEMERIS_TYPE":0,"CLASSIFICATION_TYPE":"U","NORAD_CAT_ID":41603,"ELEMENT_SET_NO":999,"REV_AT_EPOCH":53961,"BSTAR":0.00017567445,"MEAN_MOTION_DOT":5.428e-5,"MEAN_MOTION_DDOT":0},{"OBJECT_NAME":"STARLINK-35364","OBJECT_ID":"2025-221T","EPOCH":"2026-03-09T13:36:26.824032","MEAN_MOTION":15.30160346,"ECCENTRICITY":0.0001812,"INCLINATION":53.1605,"RA_OF_ASC_NODE":88.979,"ARG_OF_PERICENTER":90.1398,"MEAN_ANOMALY":269.981,"EPHEMERIS_TYPE":0,"CLASSIFICATION_TYPE":"U","NORAD_CAT_ID":65840,"ELEMENT_SET_NO":999,"REV_AT_EPOCH":2471,"BSTAR":0.001189,"MEAN_MOTION_DOT":0.00034978,"MEAN_MOTION_DDOT":0}]
